#aV2023 10  2  0  0  0.00000000     288 DD+AD WGS84 FIT  NGA
## 2282  86400.00000000   300.00000000 60219 0.0000000000000
+   32     1  2  3  4  5  6  7  8  9 10 11 12 13 14 15 16 17
+         18 19 20 21 22 23 24 25 26 27 28 29 30 31 32  0  0
+          0  0  0  0  0  0  0  0  0  0  0  0  0  0  0  0  0
+          0  0  0  0  0  0  0  0  0  0  0  0  0  0  0  0  0
+          0  0  0  0  0  0  0  0  0  0  0  0  0  0  0  0  0
++         2  2  2  2  2  2  2  2  2  2  2  2  2  2  2  2  2
++         2  2  2  2  2  2  2  2  2  2  2  2  2  2  2  0  0
++         0  0  0  0  0  0  0  0  0  0  0  0  0  0  0  0  0
++         0  0  0  0  0  0  0  0  0  0  0  0  0  0  0  0  0
++         0  0  0  0  0  0  0  0  0  0  0  0  0  0  0  0  0
%c cc cc ccc ccc cccc cccc cccc cccc ccccc ccccc ccccc ccccc
%c cc cc ccc ccc cccc cccc cccc cccc ccccc ccccc ccccc ccccc
%f  0.0000000  0.000000000  0.00000000000  0.000000000000000
%f  0.0000000  0.000000000  0.00000000000  0.000000000000000
%i    0    0    0    0      0      0      0      0         0
%i    0    0    0    0      0      0      0      0         0
/*      NGA, ST. LOUIS,MO.                                  
/*   EPHEMERIS COMPUTED FROM 2 DAYS OF DATA                 
/*   EPOCHA v8 SMOOTHER                                     
/*   G2139 IERS2010 SATIGS SATAPC                           
*  2023 10  2  8  0  0.00000000
P  1  18177.127546   9077.764600  16946.143926    164.323940                    
V  1  10155.836837  19533.202132 -20610.870579     -0.006374                    
P  2  19998.803386  13189.064978  12163.940600   -547.078127                    
V  2   7063.929540  12901.251247 -26543.586392      0.046218                    
P  3  16855.280308  -2678.517179  20172.296130   -103.086642                    
V  3 -11585.533148  23208.169024  12774.473724      0.220059                    
P  4  26607.461900    765.890872    732.117625    172.699278                    
V  4   -942.237004   2627.892256  31709.920148      0.109481                    
P  5 -10211.197375 -12500.470568 -21259.743184   -144.926861                    
V  5  12203.511343 -23607.388747   8183.158897     -0.014579                    
P  6  -3182.715431 -22643.031911  13500.503964    539.234110                    
V  6  10043.722567  13825.872314  25768.432108     -0.077130                    
P  7  12479.740765  -8714.734447 -21280.467741     51.524841                    
V  7  14967.407557  23905.145527  -1460.047837     -0.103043                    
P  8  23678.343805   6341.527309 -10795.777332   -145.075511                    
V  8 -13324.549646   2970.504710 -27275.889850     -0.018052                    
P  9  24266.825060  -7059.805315  -8347.060051    -43.941878                    
V  9  10586.776879   2161.152685  29201.990967      0.105770                    
P 10 -10364.713307  24032.189882   3506.186962    -55.694195                    
V 10  -4165.170627   2585.240140 -31987.993465     -0.014847                    
P 11 -12006.663077 -23695.569935   1165.333235   -396.106405                    
V 11   2983.858283     32.725993  31793.723495     -0.177737                    
P 12 -16106.220027  -1557.428242  20776.413404   -431.273310                    
V 12  13823.451231 -23225.940614   8929.612723     -0.042787                    
P 13 -16488.524536 -13213.825896 -16420.041952    579.283298                    
V 13  20412.323620    840.393122 -21222.283818      0.043900                    
P 14  13275.070579 -22896.843994     62.514075    201.975363                    
V 14   2956.246251   1659.508696 -31569.074130      0.111987                    
P 15 -24503.383145  -3611.590900 -10391.394916     83.094102                    
V 15  11797.126780  -5002.298041 -27131.196451      0.037020                    
P 16   5097.570948  17160.494615 -19780.659045   -445.544289                    
V 16 -14715.483293  19739.388686  13990.934526      0.058534                    
P 17  11959.404196 -13287.989545  20116.270089    723.870499                    
V 17  24474.573443   1789.500847 -13554.528818     -0.000044                    
P 18 -10730.524429  10838.392987 -21719.213700   -435.907057                    
V 18 -14321.389450 -23566.832808  -4859.717367     -0.120782                    
P 19   2378.364159 -14727.040334  21764.647970    379.347085                    
V 19  27981.841140   2553.000172  -1649.394817      0.051946                    
P 20  -3441.861416 -22068.719444 -14473.109344    408.931814                    
V 20   8017.634055 -16709.995684  23321.008311     -0.019549                    
P 21  19904.844768  16020.420618   9306.659360    147.699521                    
V 21   5068.521577   9705.176128 -28293.521741     -0.008296                    
P 22   9410.425375 -23878.004425   7831.065529    110.737963                    
V 22   7021.783526  -6437.151244 -29546.875024     -0.072795                    
P 23 -16372.050956  18720.191887  -9061.532273     76.573252                    
V 23   3186.450732 -11335.326131 -29325.649968      0.055599                    
P 24 -20266.117244 -11892.308388  12390.762121   -335.222449                    
V 24  -7474.957607 -14687.411517 -25112.052350     -0.101989                    
P 25 -18111.413710  12568.066334  14301.697363    470.697728                    
V 25   6476.456398 -17875.906535  23656.774942      0.018994                    
P 26  -1034.839321  23610.564052 -11886.819831    225.522003                    
V 26  -9244.456440  12384.817435  26026.883319     -0.020791                    
P 27  13384.592565  12980.268430 -19324.928166    -48.743103                    
V 27 -23808.601935   1710.042254 -15140.819522     -0.059858                    
P 28   2155.574981  21962.935902  14758.031458    -18.484837                    
V 28 -12050.758188 -14545.280346  23368.994793     -0.062254                    
P 29 -24733.346039   4645.168072  -8704.215184   -609.789042                    
V 29 -10821.201106  -2655.193127  29379.002574     -0.002620                    
P 30   4960.825836 -18166.998266 -18508.073547   -482.510392                    
V 30  14034.116390  19476.563895 -15518.411405      0.035751                    
P 31   8933.935226  23964.709888   6102.784269   -224.135637                    
V 31  -6894.549735  -5355.958188  30593.848405     -0.004934                    
P 32  -6775.237954  14951.619888  21019.474293   -566.733036                    
V 32 -26338.326638     55.797796  -8804.629934     -0.056142                    
EOF
